CCSDS_OMM_VERS = 2.0
CREATION_DATE  = 
ORIGINATOR     = 

OBJECT_NAME    = UNKNOWN
OBJECT_ID      = 
CENTER_NAME    = EARTH
REF_FRAME      = TEME
TIME_SYSTEM    = UTC
MEAN_ELEMENT_THEORY = SGP/SGP4

EPOCH          = 2026-02-01T12:05:58.692192
MEAN_MOTION    = 12.51230711
ECCENTRICITY   = .07760515
INCLINATION    = 99.4317
RA_OF_ASC_NODE = 122.6922
ARG_OF_PERICENTER = 324.1396
MEAN_ANOMALY   = 30.9875

EPHEMERIS_TYPE = 0
CLASSIFICATION_TYPE = U
NORAD_CAT_ID   = 270140
ELEMENT_SET_NO = 999
REV_AT_EPOCH   = 28143
BSTAR          = .41559919E-2
MEAN_MOTION_DOT = .1921E-4
MEAN_MOTION_DDOT = 0

CCSDS_OMM_VERS = 2.0
CREATION_DATE  = 
ORIGINATOR     = 

OBJECT_NAME    = UNKNOWN
OBJECT_ID      = 
CENTER_NAME    = EARTH
REF_FRAME      = TEME
TIME_SYSTEM    = UTC
MEAN_ELEMENT_THEORY = SGP/SGP4

EPOCH          = 2026-01-22T07:11:19.872384
MEAN_MOTION    = 12.42202334
ECCENTRICITY   = .00253128
INCLINATION    = 73.6065
RA_OF_ASC_NODE = 226.1594
ARG_OF_PERICENTER = 57.2650
MEAN_ANOMALY   = 303.0829

EPHEMERIS_TYPE = 0
CLASSIFICATION_TYPE = U
NORAD_CAT_ID   = 270141
ELEMENT_SET_NO = 999
REV_AT_EPOCH   = 27913
BSTAR          = .21966336E-3
MEAN_MOTION_DOT = .13E-6
MEAN_MOTION_DDOT = 0

CCSDS_OMM_VERS = 2.0
CREATION_DATE  = 
ORIGINATOR     = 

OBJECT_NAME    = UNKNOWN
OBJECT_ID      = 
CENTER_NAME    = EARTH
REF_FRAME      = TEME
TIME_SYSTEM    = UTC
MEAN_ELEMENT_THEORY = SGP/SGP4

EPOCH          = 2026-01-17T22:00:18.451872
MEAN_MOTION    = 13.68218938
ECCENTRICITY   = .00437833
INCLINATION    = 99.2653
RA_OF_ASC_NODE = 247.8262
ARG_OF_PERICENTER = 123.5678
MEAN_ANOMALY   = 236.9660

EPHEMERIS_TYPE = 0
CLASSIFICATION_TYPE = U
NORAD_CAT_ID   = 270143
ELEMENT_SET_NO = 999
REV_AT_EPOCH   = 30677
BSTAR          = .26955882E-3
MEAN_MOTION_DOT = .19E-5
MEAN_MOTION_DDOT = 0

CCSDS_OMM_VERS = 2.0
CREATION_DATE  = 
ORIGINATOR     = 

OBJECT_NAME    = UNKNOWN
OBJECT_ID      = 
CENTER_NAME    = EARTH
REF_FRAME      = TEME
TIME_SYSTEM    = UTC
MEAN_ELEMENT_THEORY = SGP/SGP4

EPOCH          = 2026-01-14T04:37:24.601440
MEAN_MOTION    = 14.53212140
ECCENTRICITY   = .00166518
INCLINATION    = 86.3081
RA_OF_ASC_NODE = 346.6148
ARG_OF_PERICENTER = 27.6150
MEAN_ANOMALY   = 332.5937

EPHEMERIS_TYPE = 0
CLASSIFICATION_TYPE = U
NORAD_CAT_ID   = 270144
ELEMENT_SET_NO = 999
REV_AT_EPOCH   = 32245
BSTAR          = .54755994E-3
MEAN_MOTION_DOT = .2293E-4
MEAN_MOTION_DDOT = 0

CCSDS_OMM_VERS = 2.0
CREATION_DATE  = 
ORIGINATOR     = 

OBJECT_NAME    = UNKNOWN
OBJECT_ID      = 
CENTER_NAME    = EARTH
REF_FRAME      = TEME
TIME_SYSTEM    = UTC
MEAN_ELEMENT_THEORY = SGP/SGP4

EPOCH          = 2026-01-06T00:49:21.289152
MEAN_MOTION    = 11.70030082
ECCENTRICITY   = .04432478
INCLINATION    = 102.5044
RA_OF_ASC_NODE = 295.7229
ARG_OF_PERICENTER = 127.7511
MEAN_ANOMALY   = 236.4534

EPHEMERIS_TYPE = 0
CLASSIFICATION_TYPE = U
NORAD_CAT_ID   = 270145
ELEMENT_SET_NO = 999
REV_AT_EPOCH   = 2071
BSTAR          = .58878207E-1
MEAN_MOTION_DOT = .423E-4
MEAN_MOTION_DDOT = 0

CCSDS_OMM_VERS = 2.0
CREATION_DATE  = 
ORIGINATOR     = 

OBJECT_NAME    = UNKNOWN
OBJECT_ID      = 
CENTER_NAME    = EARTH
REF_FRAME      = TEME
TIME_SYSTEM    = UTC
MEAN_ELEMENT_THEORY = SGP/SGP4

EPOCH          = 2026-01-12T22:54:36.523296
MEAN_MOTION    = 11.61039429
ECCENTRICITY   = .05455673
INCLINATION    = 102.4166
RA_OF_ASC_NODE = 97.0877
ARG_OF_PERICENTER = 271.4595
MEAN_ANOMALY   = 82.4020

EPHEMERIS_TYPE = 0
CLASSIFICATION_TYPE = U
NORAD_CAT_ID   = 270147
ELEMENT_SET_NO = 999
REV_AT_EPOCH   = 2203
BSTAR          = .82601327E-1
MEAN_MOTION_DOT = .6012E-4
MEAN_MOTION_DDOT = 0

CCSDS_OMM_VERS = 2.0
CREATION_DATE  = 
ORIGINATOR     = 

OBJECT_NAME    = UNKNOWN
OBJECT_ID      = 
CENTER_NAME    = EARTH
REF_FRAME      = TEME
TIME_SYSTEM    = UTC
MEAN_ELEMENT_THEORY = SGP/SGP4

EPOCH          = 2026-01-29T05:02:43.111680
MEAN_MOTION    = 13.06082740
ECCENTRICITY   = .003153
INCLINATION    = 90.3091
RA_OF_ASC_NODE = 11.7467
ARG_OF_PERICENTER = 86.8841
MEAN_ANOMALY   = 273.5891

EPHEMERIS_TYPE = 0
CLASSIFICATION_TYPE = U
NORAD_CAT_ID   = 270149
ELEMENT_SET_NO = 999
REV_AT_EPOCH   = 29322
BSTAR          = -.1465033E-2
MEAN_MOTION_DOT = -.474E-5
MEAN_MOTION_DDOT = 0

CCSDS_OMM_VERS = 2.0
CREATION_DATE  = 
ORIGINATOR     = 

OBJECT_NAME    = UNKNOWN
OBJECT_ID      = 
CENTER_NAME    = EARTH
REF_FRAME      = TEME
TIME_SYSTEM    = UTC
MEAN_ELEMENT_THEORY = SGP/SGP4

EPOCH          = 2026-01-18T08:13:24.670560
MEAN_MOTION    = 12.98936655
ECCENTRICITY   = .00386679
INCLINATION    = 90.3049
RA_OF_ASC_NODE = 39.2517
ARG_OF_PERICENTER = 23.6174
MEAN_ANOMALY   = 336.6712

EPHEMERIS_TYPE = 0
CLASSIFICATION_TYPE = U
NORAD_CAT_ID   = 270152
ELEMENT_SET_NO = 999
REV_AT_EPOCH   = 29115
BSTAR          = .27045481E-2
MEAN_MOTION_DOT = .811E-5
MEAN_MOTION_DDOT = 0

CCSDS_OMM_VERS = 2.0
CREATION_DATE  = 
ORIGINATOR     = 

OBJECT_NAME    = UNKNOWN
OBJECT_ID      = 
CENTER_NAME    = EARTH
REF_FRAME      = TEME
TIME_SYSTEM    = UTC
MEAN_ELEMENT_THEORY = SGP/SGP4

EPOCH          = 2026-01-30T13:30:21.354624
MEAN_MOTION    = 12.30468947
ECCENTRICITY   = .07430756
INCLINATION    = 83.2101
RA_OF_ASC_NODE = 131.9505
ARG_OF_PERICENTER = 277.9672
MEAN_ANOMALY   = 73.7782

EPHEMERIS_TYPE = 0
CLASSIFICATION_TYPE = U
NORAD_CAT_ID   = 270153
ELEMENT_SET_NO = 999
REV_AT_EPOCH   = 27686
BSTAR          = .9309598E-2
MEAN_MOTION_DOT = .2772E-4
MEAN_MOTION_DDOT = 0

CCSDS_OMM_VERS = 2.0
CREATION_DATE  = 
ORIGINATOR     = 

OBJECT_NAME    = UNKNOWN
OBJECT_ID      = 
CENTER_NAME    = EARTH
REF_FRAME      = TEME
TIME_SYSTEM    = UTC
MEAN_ELEMENT_THEORY = SGP/SGP4

EPOCH          = 2026-01-24T08:37:01.959744
MEAN_MOTION    = 12.54954750
ECCENTRICITY   = .00717463
INCLINATION    = 101.9199
RA_OF_ASC_NODE = 248.0535
ARG_OF_PERICENTER = 334.1185
MEAN_ANOMALY   = 25.6307

EPHEMERIS_TYPE = 0
CLASSIFICATION_TYPE = U
NORAD_CAT_ID   = 270155
ELEMENT_SET_NO = 999
REV_AT_EPOCH   = 28210
BSTAR          = .44159445E-2
MEAN_MOTION_DOT = .677E-5
MEAN_MOTION_DDOT = 0

CCSDS_OMM_VERS = 2.0
CREATION_DATE  = 
ORIGINATOR     = 

OBJECT_NAME    = UNKNOWN
OBJECT_ID      = 
CENTER_NAME    = EARTH
REF_FRAME      = TEME
TIME_SYSTEM    = UTC
MEAN_ELEMENT_THEORY = SGP/SGP4

EPOCH          = 2026-02-03T04:56:41.203680
MEAN_MOTION    = 13.04422383
ECCENTRICITY   = .00204892
INCLINATION    = 90.2221
RA_OF_ASC_NODE = 15.4320
ARG_OF_PERICENTER = 160.0948
MEAN_ANOMALY   = 200.0980

EPHEMERIS_TYPE = 0
CLASSIFICATION_TYPE = U
NORAD_CAT_ID   = 270156
ELEMENT_SET_NO = 999
REV_AT_EPOCH   = 29311
BSTAR          = -.20007142E-2
MEAN_MOTION_DOT = -.634E-5
MEAN_MOTION_DDOT = 0

CCSDS_OMM_VERS = 2.0
CREATION_DATE  = 
ORIGINATOR     = 

OBJECT_NAME    = UNKNOWN
OBJECT_ID      = 
CENTER_NAME    = EARTH
REF_FRAME      = TEME
TIME_SYSTEM    = UTC
MEAN_ELEMENT_THEORY = SGP/SGP4

EPOCH          = 2026-01-29T22:06:21.444192
MEAN_MOTION    = 12.76088210
ECCENTRICITY   = .09800511
INCLINATION    = 65.8252
RA_OF_ASC_NODE = 108.0154
ARG_OF_PERICENTER = 210.7749
MEAN_ANOMALY   = 143.2131

EPHEMERIS_TYPE = 0
CLASSIFICATION_TYPE = U
NORAD_CAT_ID   = 270157
ELEMENT_SET_NO = 999
REV_AT_EPOCH   = 28672
BSTAR          = .91484225E-3
MEAN_MOTION_DOT = .1521E-4
MEAN_MOTION_DDOT = 0

CCSDS_OMM_VERS = 2.0
CREATION_DATE  = 
ORIGINATOR     = 

OBJECT_NAME    = UNKNOWN
OBJECT_ID      = 
CENTER_NAME    = EARTH
REF_FRAME      = TEME
TIME_SYSTEM    = UTC
MEAN_ELEMENT_THEORY = SGP/SGP4

EPOCH          = 2026-01-24T01:26:30.671808
MEAN_MOTION    = 12.21564374
ECCENTRICITY   = .0136995
INCLINATION    = 74.0031
RA_OF_ASC_NODE = 148.4952
ARG_OF_PERICENTER = 263.3482
MEAN_ANOMALY   = 95.1944

EPHEMERIS_TYPE = 0
CLASSIFICATION_TYPE = U
NORAD_CAT_ID   = 270158
ELEMENT_SET_NO = 999
REV_AT_EPOCH   = 27484
BSTAR          = .14650188E-2
MEAN_MOTION_DOT = .144E-5
MEAN_MOTION_DDOT = 0

CCSDS_OMM_VERS = 2.0
CREATION_DATE  = 
ORIGINATOR     = 

OBJECT_NAME    = UNKNOWN
OBJECT_ID      = 
CENTER_NAME    = EARTH
REF_FRAME      = TEME
TIME_SYSTEM    = UTC
MEAN_ELEMENT_THEORY = SGP/SGP4

EPOCH          = 2026-02-01T10:22:41.879424
MEAN_MOTION    = 12.81673182
ECCENTRICITY   = .02793986
INCLINATION    = 62.9605
RA_OF_ASC_NODE = 98.0681
ARG_OF_PERICENTER = 222.7249
MEAN_ANOMALY   = 135.1715

EPHEMERIS_TYPE = 0
CLASSIFICATION_TYPE = U
NORAD_CAT_ID   = 270159
ELEMENT_SET_NO = 999
REV_AT_EPOCH   = 28930
BSTAR          = .14362252E-2
MEAN_MOTION_DOT = .317E-5
MEAN_MOTION_DDOT = 0

CCSDS_OMM_VERS = 2.0
CREATION_DATE  = 
ORIGINATOR     = 

OBJECT_NAME    = UNKNOWN
OBJECT_ID      = 
CENTER_NAME    = EARTH
REF_FRAME      = TEME
TIME_SYSTEM    = UTC
MEAN_ELEMENT_THEORY = SGP/SGP4

EPOCH          = 2026-02-01T15:16:22.057824
MEAN_MOTION    = 12.15874811
ECCENTRICITY   = .08685989
INCLINATION    = 83.2675
RA_OF_ASC_NODE = 353.7921
ARG_OF_PERICENTER = 159.6200
MEAN_ANOMALY   = 204.1910

EPHEMERIS_TYPE = 0
CLASSIFICATION_TYPE = U
NORAD_CAT_ID   = 270160
ELEMENT_SET_NO = 999
REV_AT_EPOCH   = 27321
BSTAR          = .10340596E-2
MEAN_MOTION_DOT = .348E-5
MEAN_MOTION_DDOT = 0

CCSDS_OMM_VERS = 2.0
CREATION_DATE  = 
ORIGINATOR     = 

OBJECT_NAME    = UNKNOWN
OBJECT_ID      = 
CENTER_NAME    = EARTH
REF_FRAME      = TEME
TIME_SYSTEM    = UTC
MEAN_ELEMENT_THEORY = SGP/SGP4

EPOCH          = 2026-01-30T16:03:35.961408
MEAN_MOTION    = 12.76574360
ECCENTRICITY   = .00506549
INCLINATION    = 101.1042
RA_OF_ASC_NODE = 17.2896
ARG_OF_PERICENTER = 167.1913
MEAN_ANOMALY   = 193.0474

EPHEMERIS_TYPE = 0
CLASSIFICATION_TYPE = U
NORAD_CAT_ID   = 270161
ELEMENT_SET_NO = 999
REV_AT_EPOCH   = 28742
BSTAR          = .25015724E-2
MEAN_MOTION_DOT = .502E-5
MEAN_MOTION_DDOT = 0

